CCSDS_OMM_VERS,COMMENT,CREATION_DATE,ORIGINATOR,OBJECT_NAME,OBJECT_ID,CENTER_NAME,REF_FRAME,TIME_SYSTEM,MEAN_ELEMENT_THEORY,EPOCH,MEAN_MOTION,ECCENTRICITY,INCLINATION,RA_OF_ASC_NODE,ARG_OF_PERICENTER,MEAN_ANOMALY,EPHEMERIS_TYPE,CLASSIFICATION_TYPE,NORAD_CAT_ID,ELEMENT_SET_NO,REV_AT_EPOCH,BSTAR,MEAN_MOTION_DOT,MEAN_MOTION_DDOT,SEMIMAJOR_AXIS,PERIOD,APOAPSIS,PERIAPSIS,OBJECT_TYPE,RCS_SIZE,COUNTRY_CODE,LAUNCH_DATE,SITE,DECAY_DATE,FILE,GP_ID,TLE_LINE0,TLE_LINE1,TLE_LINE2
3.0,GENERATED VIA SPACE-TRACK.ORG API,2018-07-24T23:31:13,18 SPCS,PSLV R/B,2017-036AH,EARTH,TEME,UTC,SGP4,2018-07-24T12:58:51.845376,16.46474073,0.0010897,94.6041,142.4081,212.035,148.7303,0,U,42796,999,6264,0.00016868,0.08488241,1.0187e-06,6526.774,87.459,155.751,141.526,ROCKET BODY,LARGE,IND,2017-06-23,SRI,2018-07-24,2312338,122056238,0 PSLV R/B,1 42796U 17036AH  18205.54087784 +.08488241 +10187-5 +16868-3 0  9993,2 42796 094.6041 142.4081 0010897 212.0350 148.7303 16.46474073062648
3.0,GENERATED VIA SPACE-TRACK.ORG API,2024-12-13T23:36:26,18 SPCS,KZ-1A R/B,2019-077C,EARTH,TEME,UTC,SGP4,2024-12-13T23:08:37.611744,16.52221572,0.0014086,88.8046,224.5959,27.4337,74.796,0,U,44787,999,27413,0.00023511,0.30370902,-1.3083e-06,6511.629,87.155,142.666,124.322,ROCKET BODY,LARGE,PRC,2019-11-17,JSC,2024-12-14,4580641,275550522,0 KZ-1A R/B,1 44787U 19077C   24348.96432421  .30370902 -13083-5  23511-3 0  9996,2 44787  88.8046 224.5959 0014086  27.4337  74.7960 16.52221572274130
3.0,GENERATED VIA SPACE-TRACK.ORG API,2024-04-13T20:03:33,18 SPCS,COSMOS 2251 DEB,1993-036AYZ,EARTH,TEME,UTC,SGP4,2024-04-12T17:15:03.086208,14.70959793,0.0031254,74.0026,237.6944,76.6128,283.8524,0,U,36372,999,56826,0.0058188,0.00036101,0.0,7036.143,97.895,679.998,636.017,DEBRIS,SMALL,CIS,1993-06-16,PKMTR,2024-11-24,4278498,254529115,0 COSMOS 2251 DEB,1 36372U 93036AYZ 24103.71878572  .00036101  00000-0  58188-2 0  9990,2 36372  74.0026 237.6944 0031254  76.6128 283.8524 14.70959793568265
3.0,GENERATED VIA SPACE-TRACK.ORG API,2023-02-14T17:33:09,18 SPCS,IRIDIUM 33 DEB,1997-051ABT,EARTH,TEME,UTC,SGP4,2023-02-10T23:59:13.573824,14.78035045,0.0045977,86.3856,133.5998,235.0107,124.6793,0,U,46961,999,9520,0.020433,0.00153243,0.0,7013.67,97.427,667.782,603.289,DEBRIS,SMALL,US,1997-09-14,TTMTR,2023-05-31,3791349,225389746,0 IRIDIUM 33 DEB,1 46961U 97051ABT 23041.99946266  .00153243  00000-0  20433-1 0  9990,2 46961  86.3856 133.5998 0045977 235.0107 124.6793 14.78035045 95207
3.0,GENERATED VIA SPACE-TRACK.ORG API,2024-06-21T02:26:17,18 SPCS,FLOCK 4X 15,2022-002AC,EARTH,TEME,UTC,SGP4,2024-06-19T11:07:12.674496,16.41447589,0.0014797,97.3612,253.7253,264.6406,95.3207,0,U,51010,999,13576,0.00063925,0.1329878,2.5335e-06,6540.092,87.727,171.634,152.279,PAYLOAD,SMALL,US,2022-01-13,AFETR,2024-06-19,4347239,259935729,0 FLOCK 4X 15,1 51010U 22002AC  24171.46334114  .13298780  25335-5  63925-3 0  9993,2 51010  97.3612 253.7253 0014797 264.6406  95.3207 16.41447589135767
3.0,GENERATED VIA SPACE-TRACK.ORG API,2004-08-15T23:35:50,18 SPCS,SL-7 R/B,1967-059B,EARTH,TEME,UTC,SGP4,1967-11-01T16:48:40.095648,16.37333267,0.0040055,81.835,53.2469,322.5369,37.3012,0,U,2843,999,2097,0.0,0.10420258,0.0,6551.047,87.947,199.152,146.671,ROCKET BODY,,,,,1967-11-01,33915,8756278,0 SL-7 R/B,1 02843U 67059  B 67305.70046407  .10420258 +00000-0 +00000-0 0  9995,2 02843 081.8350 053.2469 0040055 322.5369 037.3012 16.37333267020972
3.0,GENERATED VIA SPACE-TRACK.ORG API,2008-08-15T00:50:09,18 SPCS,FENGYUN 1C DEB,1999-025AUK,EARTH,TEME,UTC,SGP4,2008-08-14T17:08:49.804511,15.949664,0.003263,99.1512,322.718,253.3274,106.8866,0,U,30801,999,8076,0.013118,0.04109199,0.026967,6666.549,90.284,310.167,266.661,DEBRIS,SMALL,PRC,1999-05-10,TSC,2008-08-15,592499,67520725,0 FENGYUN 1C DEB,1 30801U 99025AUK 08227.71446533  .04109199  26967-1  13118-1 0  9998,2 30801 099.1512 322.7180 0032630 253.3274 106.8866 15.94966400 80764
3.0,GENERATED VIA SPACE-TRACK.ORG API,2005-06-09T11:44:05,18 SPCS,MIR DEB,1986-017EP,EARTH,TEME,UTC,SGP4,1991-09-11T08:58:08.705567,16.28879708,0.0004306,51.5789,207.835,345.1234,15.0294,0,U,21571,999,31865,0.0020782,0.08799714,5.4199e-05,6573.693,88.404,198.389,192.727,DEBRIS,,,,,1991-09-11,145815,49698368,0 MIR DEB,1 21571U 86017 EP 91254.37371187  .08799714 +54199-4 +20782-2 0  9994,2 21571 051.5789 207.8350 0004306 345.1234 015.0294 16.28879708318653
3.0,GENERATED VIA SPACE-TRACK.ORG API,2004-08-17T14:36:24,18 SPCS,COSMOS 1813 DEB,1987-004DK,EARTH,TEME,UTC,SGP4,1988-07-04T09:42:55.855295,16.19292316,0.0024953,72.7495,195.1072,122.5187,238.624,0,U,17901,999,7631,0.004318,0.08302598,2.7027e-06,6599.615,88.927,237.948,205.012,DEBRIS,SMALL,CIS,1987-01-15,PKMTR,1988-07-05,34577,16178825,0 COSMOS 1813 DEB,1 17901U 87004 DK 88186.40481314  .08302598 +27027-5 +43180-2 0  9999,2 17901 072.7495 195.1072 0024953 122.5187 238.6240 16.19292316076310
3.0,GENERATED VIA SPACE-TRACK.ORG API,2004-08-17T15:08:12,18 SPCS,PEGASUS DEB,1994-029AL,EARTH,TEME,UTC,SGP4,1997-02-17T02:49:51.619583,15.73984367,0.0028399,81.8944,297.4942,141.5749,218.8759,0,U,23990,999,3625,0.04,0.0692738,0.0,6725.664,91.487,366.629,328.428,DEBRIS,SMALL,US,1994-05-19,AFWTR,1997-02-18,35213,24395717,0 PEGASUS DEB,1 23990U 94029AL  97048.11795856 +.06927380 +00000-0 +40000-1 0  9997,2 23990 081.8944 297.4942 0028399 141.5749 218.8759 15.73984367036257
3.0,GENERATED VIA SPACE-TRACK.ORG API,2004-08-15T23:39:47,18 SPCS,COSMOS 824 DEB,1976-052F,EARTH,TEME,UTC,SGP4,1976-06-22T09:13:30.375839,16.29504655,0.0051301,71.3737,6.8581,33.8014,326.6421,0,U,8906,999,227,0.0,0.03764769,0.0,6572.012,88.37,227.592,160.162,DEBRIS,,,,,1976-06-23,33994,9768829,0 COSMOS 824 DEB,1 08906U 76052  F 76174.38437935  .03764769 +00000-0 +00000-0 0  9992,2 08906 071.3737 006.8581 0051301 033.8014 326.6421 16.29504655002278
3.0,GENERATED VIA SPACE-TRACK.ORG API,2022-04-04T17:30:14,18 SPCS,COSMOS 1408 DEB,1982-092AST,EARTH,TEME,UTC,SGP4,2022-04-04T09:56:12.617088,15.63572233,0.0027489,82.835,346.2777,33.6845,326.6154,0,U,50767,999,1584,0.0051341,0.0051343,0.0,6755.485,92.097,395.92,358.78,DEBRIS,SMALL,CIS,1982-09-16,PKMTR,2022-04-24,3387897,200428097,0 COSMOS 1408 DEB,1 50767U 82092AST 22094.41403492  .00513430  00000-0  51341-2 0  9992,2 50767  82.8350 346.2777 0027489  33.6845 326.6154 15.63572233 15840
3.0,GENERATED VIA SPACE-TRACK.ORG API,2004-08-16T23:25:29,18 SPCS,COSMOS 1461 DEB,1983-044R,EARTH,TEME,UTC,SGP4,1987-07-03T19:21:41.611104,15.95000486,0.002858,64.9585,114.1928,240.0151,119.835,0,U,15688,999,11569,0.01857,0.07587777,2.8292e-06,6666.454,90.282,307.372,269.266,DEBRIS,,,,,1987-07-04,34536,15461640,0 COSMOS 1461 DEB,1 15688U 83044  R 87184.80673161  .07587777 +28292-5 +18570-1 0  9995,2 15688 064.9585 114.1928 0028580 240.0151 119.8350 15.95000486115696
3.0,GENERATED VIA SPACE-TRACK.ORG API,2004-08-15T23:41:44,18 SPCS,THORAD AGENA D DEB,1970-025FX,EARTH,TEME,UTC,SGP4,1978-07-02T10:53:49.912224,15.24997997,0.006747,100.0668,4.0694,182.693,177.3895,0,U,4931,999,43480,0.0,0.00377875,0.0,6868.932,94.426,537.142,444.453,DEBRIS,SMALL,US,1970-04-08,AFWTR,1978-08-04,34033,10308289,0 THORAD AGENA D DEB,1 04931U 70025 FX 78183.45404991  .00377875 +00000-0 +00000-0 0  9991,2 04931 100.0668 004.0694 0067470 182.6930 177.3895 15.24997997434807
3.0,GENERATED VIA SPACE-TRACK.ORG API,2004-08-17T15:31:06,18 SPCS,SZ-3 MODULE,2002-014C,EARTH,TEME,UTC,SGP4,2002-11-11T23:54:11.000159,16.39613076,0.0003983,42.3961,56.3596,268.9988,76.0787,0,U,27408,999,3536,0.00065149,0.08786373,8.8729e-06,6544.973,87.825,169.445,164.231,PAYLOAD,LARGE,PRC,2002-03-25,JSC,2002-11-12,35671,37829779,0 SZ-3 MODULE,1 27408U 02014C   02315.99596065  .08786373  88729-5  65149-3 0  9997,2 27408 042.3961 056.3596 0003983 268.9988 076.0787 16.39613076 35369
3.0,GENERATED VIA SPACE-TRACK.ORG API,2004-08-16T23:25:53,18 SPCS,SL-16 R/B,1987-071B,EARTH,TEME,UTC,SGP4,1987-09-01T21:00:52.273727,16.50947885,0.000735,64.817,119.5067,34.8325,325.6215,0,U,18319,999,15,0.00014395,0.15028946,3.3703e-05,6514.981,87.222,141.635,132.058,ROCKET BODY,,,,,1987-09-02,34544,15654146,0 SL-16 R/B,1 18319U 87071  B 87244.87560502  .15028946 +33703-4 +14395-3 0  9993,2 18319 064.8170 119.5067 0007350 034.8325 325.6215 16.50947885000152
3.0,GENERATED VIA SPACE-TRACK.ORG API,2004-08-17T14:44:45,18 SPCS,SL-4 R/B,1990-053B,EARTH,TEME,UTC,SGP4,1990-06-21T00:14:49.417151,16.51835735,0.0008396,82.5792,63.8626,84.5802,277.3345,0,U,20658,999,27,0.00019941,0.22936513,6.5877e-06,6512.647,87.175,139.98,129.044,ROCKET BODY,,,,,1990-06-21,34744,17852110,0 SL-4 R/B,1 20658U 90053  B 90172.01029418  .22936513 +65877-5 +19941-3 0  9998,2 20658 082.5792 063.8626 0008396 084.5802 277.3345 16.51835735000274
3.0,GENERATED VIA SPACE-TRACK.ORG API,2010-08-02T15:38:31,18 SPCS,BREEZE-M DEB,2009-042S,EARTH,TEME,UTC,SGP4,2010-08-02T17:24:54.736992,15.80548136,0.012277,47.9598,340.0596,278.3313,80.5495,0,U,36763,999,429,0.0001,0.00031177,1.0563e-05,6707.03,91.107,411.238,246.553,DEBRIS,SMALL,CIS,2009-08-11,TTMTR,2010-08-02,938242,78910461,0 BREEZE-M DEB,1 36763U 09042S   10214.72563353  .00031177  10563-4  10000-3 0  9994,2 36763 047.9598 340.0596 0122770 278.3313 080.5495 15.80548136  4299
3.0,GENERATED VIA SPACE-TRACK.ORG API,2022-04-17T18:15:35,18 SPCS,COSMOS 1408 DEB,1982-092AMP,EARTH,TEME,UTC,SGP4,2022-04-17T01:58:48.534816,16.28849345,0.0011741,82.5475,328.5319,236.4515,123.5658,0,U,50643,999,2134,0.0045096,0.17935521,-1.196e-06,6573.771,88.406,203.354,187.918,DEBRIS,SMALL,CIS,1982-09-16,PKMTR,2022-04-17,3405596,201466961,0 COSMOS 1408 DEB,1 50643U 82092AMP 22107.08250619  .17935521 -11960-5  45096-2 0  9994,2 50643  82.5475 328.5319 0011741 236.4515 123.5658 16.28849345 21342
